{
  "type": "FeatureCollection",
  "features": [
    {
      "type": "Feature",
      "properties": {
        "norad_id": 66174,
        "name": "HTV-X1",
        "group": "stations",
        "lat": 14.425345143911695,
        "lon": -77.18318156379081,
        "alt_km": 416.9654381024802,
        "timestamp": "2025-12-18T08:58:42.136116+00:00",
        "meta_object_name": "HTV-X1",
        "meta_object_id": "2025-241A",
        "meta_epoch": "2025-12-17T19:54:10.621440",
        "meta_mean_motion": 15.49640803,
        "meta_eccentricity": 0.00031686,
        "meta_inclination": 51.6309,
        "meta_ra_of_asc_node": 117.2752,
        "meta_arg_of_pericenter": 263.8701,
        "meta_mean_anomaly": 96.1927,
        "meta_ephemeris_type": 0,
        "meta_classification_type": "U",
        "meta_norad_cat_id": 66174,
        "meta_element_set_no": 999,
        "meta_rev_at_epoch": 51,
        "meta_bstar": 0.00014328078,
        "meta_mean_motion_dot": 7.629e-05,
        "meta_mean_motion_ddot": 0,
        "tle_line1": "1 66174U 25241A   25351.82928960  .00007629  00000+0  14328-3 0  9992",
        "tle_line2": "2 66174  51.6309 117.2752 0003168 263.8701  96.1927 15.49640803   510"
      },
      "geometry": {
        "type": "Point",
        "coordinates": [
          -77.18318156379081,
          14.425345143911695
        ]
      }
    },
    {
      "type": "Feature",
      "properties": {
        "norad_id": 66515,
        "name": "SZ-21 MODULE",
        "group": "stations",
        "lat": 39.3321997367224,
        "lon": 93.6002672896357,
        "alt_km": 377.23449323676505,
        "timestamp": "2025-12-18T08:58:42.136126+00:00",
        "meta_object_name": "SZ-21 MODULE",
        "meta_object_id": "2025-246C",
        "meta_epoch": "2025-12-17T06:26:59.040960",
        "meta_mean_motion": 15.62718015,
        "meta_eccentricity": 0.00059901,
        "meta_inclination": 41.4771,
        "meta_ra_of_asc_node": 348.414,
        "meta_arg_of_pericenter": 284.3104,
        "meta_mean_anomaly": 75.707,
        "meta_ephemeris_type": 0,
        "meta_classification_type": "U",
        "meta_norad_cat_id": 66515,
        "meta_element_set_no": 999,
        "meta_rev_at_epoch": 515,
        "meta_bstar": 0.00025031156,
        "meta_mean_motion_dot": 0.00022864,
        "meta_mean_motion_ddot": 0,
        "tle_line1": "1 66515U 25246C   25351.26873890  .00022864  00000+0  25031-3 0  9996",
        "tle_line2": "2 66515  41.4771 348.4140 0005990 284.3104  75.7070 15.62718015  5151"
      },
      "geometry": {
        "type": "Point",
        "coordinates": [
          93.6002672896357,
          39.3321997367224
        ]
      }
    },
    {
      "type": "Feature",
      "properties": {
        "norad_id": 66645,
        "name": "SHENZHOU-22",
        "group": "stations",
        "lat": 30.097084416281447,
        "lon": 121.47321821912384,
        "alt_km": 381.1450581386771,
        "timestamp": "2025-12-18T08:58:42.136137+00:00",
        "meta_object_name": "SHENZHOU-22",
        "meta_object_id": "2025-272A",
        "meta_epoch": "2025-12-17T17:03:03.263616",
        "meta_mean_motion": 15.59389869,
        "meta_eccentricity": 0.00077031,
        "meta_inclination": 41.4683,
        "meta_ra_of_asc_node": 346.526,
        "meta_arg_of_pericenter": 74.1787,
        "meta_mean_anomaly": 285.99,
        "meta_ephemeris_type": 0,
        "meta_classification_type": "U",
        "meta_norad_cat_id": 66645,
        "meta_element_set_no": 999,
        "meta_rev_at_epoch": 26357,
        "meta_bstar": 0.00025361987,
        "meta_mean_motion_dot": 0.0002035,
        "meta_mean_motion_ddot": 0,
        "tle_line1": "1 66645U 25272A   25351.71045444  .00020350  00000+0  25362-3 0  9990",
        "tle_line2": "2 66645  41.4683 346.5260 0007703  74.1787 285.9900 15.59389869263571"
      },
      "geometry": {
        "type": "Point",
        "coordinates": [
          121.47321821912384,
          30.097084416281447
        ]
      }
    },
    {
      "type": "Feature",
      "properties": {
        "norad_id": 66664,
        "name": "SOYUZ-MS 28",
        "group": "stations",
        "lat": 14.425343606137927,
        "lon": -77.18318023876441,
        "alt_km": 416.9654382659228,
        "timestamp": "2025-12-18T08:58:42.136147+00:00",
        "meta_object_name": "SOYUZ-MS 28",
        "meta_object_id": "2025-275A",
        "meta_epoch": "2025-12-17T19:54:10.621440",
        "meta_mean_motion": 15.49640803,
        "meta_eccentricity": 0.00031686,
        "meta_inclination": 51.6309,
        "meta_ra_of_asc_node": 117.2752,
        "meta_arg_of_pericenter": 263.8701,
        "meta_mean_anomaly": 96.1927,
        "meta_ephemeris_type": 0,
        "meta_classification_type": "U",
        "meta_norad_cat_id": 66664,
        "meta_element_set_no": 999,
        "meta_rev_at_epoch": 128,
        "meta_bstar": 0.00014328078,
        "meta_mean_motion_dot": 7.629e-05,
        "meta_mean_motion_ddot": 0,
        "tle_line1": "1 66664U 25275A   25351.82928960  .00007629  00000+0  14328-3 0  9993",
        "tle_line2": "2 66664  51.6309 117.2752 0003168 263.8701  96.1927 15.49640803  1289"
      },
      "geometry": {
        "type": "Point",
        "coordinates": [
          -77.18318023876441,
          14.425343606137927
        ]
      }
    },
    {
      "type": "Feature",
      "properties": {
        "norad_id": 66906,
        "name": "1998-067XS",
        "group": "stations",
        "lat": -25.861595664109384,
        "lon": -42.94698120366822,
        "alt_km": 415.5182128117194,
        "timestamp": "2025-12-18T08:58:42.136157+00:00",
        "meta_object_name": "1998-067XS",
        "meta_object_id": "1998-067XS",
        "meta_epoch": "2025-12-17T16:35:43.301760",
        "meta_mean_motion": 15.50834133,
        "meta_eccentricity": 0.0003138,
        "meta_inclination": 51.6309,
        "meta_ra_of_asc_node": 117.8563,
        "meta_arg_of_pericenter": 226.0893,
        "meta_mean_anomaly": 133.9837,
        "meta_ephemeris_type": 0,
        "meta_classification_type": "U",
        "meta_norad_cat_id": 66906,
        "meta_element_set_no": 999,
        "meta_rev_at_epoch": 238,
        "meta_bstar": 0.00042869394,
        "meta_mean_motion_dot": 0.00024822,
        "meta_mean_motion_ddot": 0,
        "tle_line1": "1 66906U 98067XS  25351.69147340  .00024822  00000+0  42869-3 0  9996",
        "tle_line2": "2 66906  51.6309 117.8563 0003138 226.0893 133.9837 15.50834133  2389"
      },
      "geometry": {
        "type": "Point",
        "coordinates": [
          -42.94698120366822,
          -25.861595664109384
        ]
      }
    },
    {
      "type": "Feature",
      "properties": {
        "norad_id": 66907,
        "name": "1998-067XT",
        "group": "stations",
        "lat": -47.85728701193379,
        "lon": -4.501899696554917,
        "alt_km": 412.32092137434574,
        "timestamp": "2025-12-18T08:58:42.136167+00:00",
        "meta_object_name": "1998-067XT",
        "meta_object_id": "1998-067XT",
        "meta_epoch": "2025-12-17T19:32:19.947264",
        "meta_mean_motion": 15.52074588,
        "meta_eccentricity": 0.00039845,
        "meta_inclination": 51.6304,
        "meta_ra_of_asc_node": 117.1744,
        "meta_arg_of_pericenter": 257.0045,
        "meta_mean_anomaly": 103.05,
        "meta_ephemeris_type": 0,
        "meta_classification_type": "U",
        "meta_norad_cat_id": 66907,
        "meta_element_set_no": 999,
        "meta_rev_at_epoch": 240,
        "meta_bstar": 0.00089323104,
        "meta_mean_motion_dot": 0.00054815,
        "meta_mean_motion_ddot": 0,
        "tle_line1": "1 66907U 98067XT  25351.81411976  .00054815  00000+0  89323-3 0  9991",
        "tle_line2": "2 66907  51.6304 117.1744 0003984 257.0045 103.0500 15.52074588  2401"
      },
      "geometry": {
        "type": "Point",
        "coordinates": [
          -4.501899696554917,
          -47.85728701193379
        ]
      }
    },
    {
      "type": "Feature",
      "properties": {
        "norad_id": 66908,
        "name": "1998-067XU",
        "group": "stations",
        "lat": -49.14037830328489,
        "lon": 0.7232245558558086,
        "alt_km": 411.97445385292303,
        "timestamp": "2025-12-18T08:58:42.136177+00:00",
        "meta_object_name": "1998-067XU",
        "meta_object_id": "1998-067XU",
        "meta_epoch": "2025-12-17T14:53:17.519424",
        "meta_mean_motion": 15.52149323,
        "meta_eccentricity": 0.00041086,
        "meta_inclination": 51.6303,
        "meta_ra_of_asc_node": 118.1303,
        "meta_arg_of_pericenter": 254.9738,
        "meta_mean_anomaly": 105.0797,
        "meta_ephemeris_type": 0,
        "meta_classification_type": "U",
        "meta_norad_cat_id": 66908,
        "meta_element_set_no": 999,
        "meta_rev_at_epoch": 237,
        "meta_bstar": 0.00089135269,
        "meta_mean_motion_dot": 0.00054848,
        "meta_mean_motion_ddot": 0,
        "tle_line1": "1 66908U 98067XU  25351.62034166  .00054848  00000+0  89135-3 0  9990",
        "tle_line2": "2 66908  51.6303 118.1303 0004108 254.9738 105.0797 15.52149323  2373"
      },
      "geometry": {
        "type": "Point",
        "coordinates": [
          0.7232245558558086,
          -49.14037830328489
        ]
      }
    }
  ]
}